ORBCOMM FM24 [-]        
1 25478U 98053D   23245.03533491  .00001133  00000+0  44715-3 0  9996
2 25478  45.0087 121.3285 0000143 205.2624 154.8216 14.34583205303685
ORBCOMM FM25 [-]        
1 25479U 98053E   23244.92913120  .00001119  00000+0  44203-3 0  9991
2 25479  45.0082 120.0609 0002768 219.2579 140.8068 14.34573824303682
ORBCOMM FM26 [-]        
1 25480U 98053F   23245.33973227  .00000899  00000+0  36798-3 0  9997
2 25480  45.0076 111.3381 0005068 243.2681 116.7647 14.34174716303798
ORBCOMM FM27 [+]        
1 25481U 98053G   23245.33088070  .00001220  00000+0  47809-3 0  9995
2 25481  45.0063 118.4194 0001392  14.8728 345.2159 14.34543589303712
ORBCOMM FM28 [-]        
1 25482U 98053H   23244.84337310  .00001017  00000+0  40241-3 0  9992
2 25482  45.0076  60.0947 0003461 253.1546 106.8922 14.35052948304434
ORBCOMM FM30 [-]        
1 25980U 99065A   23245.46440957  .00000813  00000+0  33664-3 0  9994
2 25980  45.0326 296.0294 0006468 319.7855  40.2513 14.34297754241031
ORBCOMM FM31 [-]        
1 25981U 99065B   23245.08489483  .00000856  00000+0  35165-3 0  9995
2 25981  45.0237 291.7231 0003251 322.3466  37.7154 14.34335236240973
ORBCOMM FM32 [+]        
1 25982U 99065C   23245.51072798  .00000811  00000+0  34255-3 0  9991
2 25982  45.0170 301.6672 0004811 343.0246  17.0439 14.33282197240859
